TIANMU-1 04             
1 55974U 23039B   26194.79670194  .00009331  00000+0  17642-3 0  9990
2 55974  97.5170   8.9794 0003142  18.5456 341.5908 15.48641235184964
TIANMU-1 05             
1 55975U 23039C   26194.79979492  .00009423  00000+0  18251-3 0  9993
2 55975  97.5217   9.4317 0003079  49.4675 310.6843 15.47941221184938
TIANMU-1 06             
1 55976U 23039D   26194.80179362  .00009700  00000+0  18398-3 0  9994
2 55976  97.5224  10.0966 0003183  41.2203 318.9287 15.48538532184962
TIANMU-1 07             
1 57399U 23101A   26194.85015304  .00003692  00000+0  12925-3 0  9999
2 57399  97.2581 244.9087 0003830  67.4288 292.7358 15.30105993165723
TIANMU-1 08             
1 57400U 23101B   26194.88212045  .00003764  00000+0  13171-3 0  9990
2 57400  97.2569 244.7068 0004730  49.9965 310.1691 15.30110058165729
TIANMU-1 09             
1 57401U 23101C   26194.86491696  .00003819  00000+0  13342-3 0  9991
2 57401  97.2527 244.0921 0004431  67.7763 292.3948 15.30150599165727
TIANMU-1 10             
1 57402U 23101D   26194.83304025  .00003879  00000+0  13558-3 0  9993
2 57402  97.2607 245.1387 0005762  58.0730 302.1071 15.30123963165711
TIANMU-1 11             
1 58645U 23205A   26194.85301530  .00003190  00000+0  12216-3 0  9994
2 58645  97.3441 215.9949 0006765 268.1164  91.9301 15.27255875141599
TIANMU-1 12             
1 58646U 23205B   26194.82526654  .00003311  00000+0  12736-3 0  9990
2 58646  97.3429 215.7151 0005700 240.6641 119.4029 15.27087058141579
TIANMU-1 13             
1 58647U 23205C   26194.85870175  .00003292  00000+0  12664-3 0  9992
2 58647  97.3457 216.0275 0005658 217.8478 142.2364 15.27079874141571
